[{"OBJECT_NAME":"LEMUR-2-ANDIS","OBJECT_ID":"2017-042P","EPOCH":"2026-03-09T13:25:33.116448","MEAN_MOTION":15.30557934,"ECCENTRICITY":0.0009101,"INCLINATION":97.3659,"RA_OF_ASC_NODE":249.795,"ARG_OF_PERICENTER":4.3248,"MEAN_ANOMALY":355.807,"EPHEMERIS_TYPE":0,"CLASSIFICATION_TYPE":"U","NORAD_CAT_ID":42838,"ELEMENT_SET_NO":999,"REV_AT_EPOCH":47319,"BSTAR":0.00079875,"MEAN_MOTION_DOT":0.00023598,"MEAN_MOTION_DDOT":0},{"OBJECT_NAME":"STARLINK-30919","OBJECT_ID":"2023-180K","EPOCH":"2026-03-09T09:12:34.926048","MEAN_MOTION":15.27568602,"ECCENTRICITY":7.868e-5,"INCLINATION":43.0006,"RA_OF_ASC_NODE":53.82,"ARG_OF_PERICENTER":271.186,"MEAN_ANOMALY":88.8902,"EPHEMERIS_TYPE":0,"CLASSIFICATION_TYPE":"U","NORAD_CAT_ID":58411,"ELEMENT_SET_NO":999,"REV_AT_EPOCH":12748,"BSTAR":-7.8684143e-5,"MEAN_MOTION_DOT":-2.426e-5,"MEAN_MOTION_DDOT":0}]
